IRIDIUM 163             
1 43575U 18061G   26158.02636321  .00000072  00000+0  18575-4 0  9993
2 43575  86.3965  60.9705 0002328  83.7992 276.3469 14.34220570411925
IRIDIUM 156             
1 43576U 18061H   26157.86146323  .00000254  00000+0  83529-4 0  9996
2 43576  86.3965  61.0467 0002142  80.8029 279.3409 14.34218882411892
IRIDIUM 164             
1 43577U 18061J   26157.98197218  .00000125  00000+0  37676-4 0  9998
2 43577  86.3966  61.0365 0002063  87.8899 272.2533 14.34217077411957
IRIDIUM 159             
1 43578U 18061K   26158.02002794  .00000250  00000+0  82272-4 0  9990
2 43578  86.3966  60.9577 0002314  85.6343 274.5117 14.34218966411928
IRIDIUM 180             
1 43922U 19002A   26158.29859858  .00000058  00000+0  13662-4 0  9992
2 43922  86.3973 357.7326 0002257  89.4746 270.6709 14.34218057387571
IRIDIUM 176             
1 43923U 19002B   26157.62399367  .00000804  00000+0  12364-3 0  9999
2 43923  86.6095 357.9594 0002199  90.4585 269.6885 14.72252866397692
IRIDIUM 168             
1 43924U 19002C   26157.80387690  .00000023  00000+0  12660-5 0  9990
2 43924  86.3971 358.0163 0002100  89.9178 270.2259 14.34217549387486
IRIDIUM 173             
1 43925U 19002D   26158.27956958  .00000184  00000+0  58465-4 0  9992
2 43925  86.3975 357.7066 0002263  87.3328 272.8127 14.34217471387530
IRIDIUM 169             
1 43926U 19002E   26157.67976428  .00000277  00000+0  84150-4 0  9993
2 43926  86.4236  29.5864 0002216  70.9762 289.1676 14.38609634388711
IRIDIUM 172             
1 43927U 19002F   26157.78484897  .00000049  00000+0  10429-4 0  9995
2 43927  86.3973 357.9214 0002270  89.0585 271.0871 14.34217834387472
IRIDIUM 175             
1 43928U 19002G   26158.08653705  .00000343  00000+0  95364-4 0  9994
2 43928  86.4506 294.7441 0001233 224.3030 135.8072 14.43607062397526
IRIDIUM 171             
1 43929U 19002H   26158.25420067  .00000019  00000+0 -20368-6 0  9992
2 43929  86.3984 358.0305 0002016  87.2383 272.9043 14.34217574387532
IRIDIUM 170             
1 43930U 19002J   26157.83408118  .00000232  00000+0  32903-4 0  9992
2 43930  86.6093 357.8739 0002366  87.1284 273.0204 14.72252497397732
IRIDIUM 167             
1 43931U 19002K   26157.61994083  .00000014  00000+0 -21435-5 0  9998
2 43931  86.3974 358.0127 0001879  85.4951 274.6459 14.34217590387441
IRIDIUM 181             
1 56726U 23068S   26157.42973254  .00000380  00000+0  10690-3 0  9991
2 56726  86.4503  61.2868 0002269  89.9643 270.1818 14.43308993160887
IRIDIUM 177             
1 56727U 23068T   26157.77668883  .00001248  00000+0  16077-3 0  9998
2 56727  86.1959 333.7375 0002472  86.8854 273.2650 14.80221466164822
IRIDIUM 174             
1 56728U 23068U   26157.54984527  .00000356  00000+0  52599-4 0  9999
2 56728  86.6103 358.1398 0002599  87.7998 272.3516 14.72254363164457
IRIDIUM 178             
1 56729U 23068V   26157.63058856  .00001044  00000+0  13392-3 0  9999
2 56729  86.6546  29.7721 0002491  88.5001 271.6506 14.80248933164800
IRIDIUM 179             
1 56730U 23068W   26157.62526202  .00001011  00000+0  12962-3 0  9991
2 56730  86.6789  38.7229 0002404  87.2430 272.9067 14.80232238164807
